LUDI TANCE 1-01A (L-SA*)
1 51284U 22007A   26182.43322647  .00000658  00000+0  76794-4 0  9996
2 51284  97.8099 189.6506 0001594  89.8440 270.2959 14.88424373240599
LUDI TANCE 1-01B (L-SA*)
1 51822U 22018A   26183.60970630  .00000722  00000+0  83733-4 0  9990
2 51822  97.8105 190.8078 0001629  91.1169 269.0234 14.88418165236001
2022-023F               
1 51951U 22023F   26182.76933182  .00007238  00000+0  29197-3 0  9998
2 51951  63.4435 223.9070 0131908 341.9518  17.6933 15.17972646239926
MERIDIAN 10             
1 52145U 22030A   26182.42556045  .00000167  00000+0  00000+0 0  9996
2 52145  62.6790 139.2518 6787824 272.8490  17.6305  2.00611817 31318
OMNI-L1                 
1 52157U 22033A   26183.22744428  .00002610  00000+0  32902-3 0  9990
2 52157  97.8393 262.1129 0004275 222.5064 137.5819 14.82805288229680
ENMAP                   
1 52159U 22033C   26183.63273447  .00000396  00000+0  66493-4 0  9997
2 52159  97.9798 265.6637 0001462  75.4276 284.7095 14.74932337228934
ARCSAT-1                
1 52161U 22033E   26183.19547305  .00014041  00000+0  21863-3 0  9991
2 52161  97.2757 275.6947 0006065 132.7137 227.4629 15.53982129238038
GLOBAL-18               
1 52196U 22034B   26183.31211566  .00017257  00000+0  34652-3 0  9993
2 52196  52.9795 184.3242 0003954 346.1333  13.9564 15.46785554239305
GAOFEN-3 03             
1 52200U 22035A   26183.63159006 -.00000042  00000+0  57172-6 0  9995
2 52200  98.4056 191.9877 0001599  95.5544 264.5828 14.42216661223073
DAQI-1                  
1 52257U 22039A   26183.65863644  .00000141  00000+0  40702-4 0  9991
2 52257  98.1489 122.1911 0003017 184.9603 175.1567 14.57685899224193
BRO-6                   
1 52422U 22047AE  26183.62130125  .00042562  00000+0  71513-3 0  9998
2 52422  97.3401 274.9833 0003635  17.8368 342.3012 15.51647932233542
JILIN-1 GAOFEN 3D27     
1 52444U 22048B   26183.57278752  .00153512  00000+0  84315-3 0  9998
2 52444  97.5731 298.9478 0003381 277.2731  82.8151 15.79319453231901
JILIN-1 GAOFEN 3D28     
1 52445U 22048C   26183.53877670  .00182490  00000+0  83607-3 0  9999
2 52445  97.5659 299.1312 0002837 259.0739 101.0211 15.83204246231956
VIGORIDE-3              
1 52760U 22057AE  26183.54709205  .00006394  00000+0  24071-3 0  9996
2 52760  97.6630 323.9308 0009639  74.0943 286.1357 15.27439442227504
ION SCV-006             
1 52761U 22057AF  26183.38076398  .00013942  00000+0  28928-3 0  9991
2 52761  97.6122 332.7355 0017857  62.2291 298.0766 15.45657678228462
SHERPA-AC1              
1 52763U 22057AH  26183.37263128  .00008665  00000+0  24563-3 0  9998
2 52763  97.6707 333.2345 0008296  46.8943 313.2993 15.36476825228035
OMNI-L2                 
1 52771U 22057AR  26183.59052736  .00001635  00000+0  21511-3 0  9992
2 52771  97.4709 244.9137 0005087 273.3311  86.7321 14.81411757222675
STEP CUBE LAB-II        
1 52897U 22065D   26183.65786477  .00000931  00000+0  18954-3 0  9998
2 52897  98.2248 327.5126 0008184 345.6669  14.4300 14.63327344213760
RANDEV                  
1 52898U 22065E   26183.65484741  .00000792  00000+0  16128-3 0  9994
2 52898  98.2231 327.8681 0007570 346.7925  13.3078 14.63714903213511
SNUGLITE-II             
1 52899U 22065F   26183.40525334  .00001093  00000+0  21596-3 0  9992
2 52899  98.2221 328.2102 0006955 346.0006  14.1002 14.64375877213221
MIMAN                   
1 52900U 22065G   26183.65420882  .00000664  00000+0  14242-3 0  9997
2 52900  98.2282 326.0602 0007159 347.6079  12.4945 14.61860861212704
STARLINK-4362           
1 53043U 22077A   26183.48458822 -.00002316  00000+0 -15664-3 0  9992
2 53043  97.2858   1.6404 0001651  66.8489 293.2912 15.05662097218184
LARES-2                 
1 53105U 22080A   26177.40365794 -.00000028  00000+0  00000+0 0  9996
2 53105  70.1592 302.1681 0005264 334.1364  25.8897  6.38965133 92253
GREENCUBE (IO-117)      
1 53109U 22080E   26181.72466670 -.00000003  00000+0  00000+0 0  9998
2 53109  70.1437 293.5372 0008958 286.6703  73.2973  6.42583253 92937
STARLINK-4410           
1 53204U 22084R   26183.58335648  .00134810  00000+0  34564-2 0  9992
2 53204  97.5988 245.1319 0001553  89.1940 180.1859 15.38822556  5835
COSMOS 2558             
1 53323U 22089A   26182.49057441  .00139889  00000+0  80594-3 0  9996
2 53323  97.2255 287.1682 0002664 243.8138 116.2855 15.78292621220082
TECMS                   
1 53346U 22090A   26183.61463252  .00004305  00000+0  19421-3 0  9994
2 53346  97.3131 251.2881 0004836 132.0040 228.1609 15.21512961217152
