OBJECT_NAME,OBJECT_ID,EPOCH,MEAN_MOTION,ECCENTRICITY,INCLINATION,RA_OF_ASC_NODE,ARG_OF_PERICENTER,MEAN_ANOMALY,EPHEMERIS_TYPE,CLASSIFICATION_TYPE,NORAD_CAT_ID,ELEMENT_SET_NO,REV_AT_EPOCH,BSTAR,MEAN_MOTION_DOT,MEAN_MOTION_DDOT
LUDI TANCE 1-01A (L-SAR 01A),2022-007A,2026-07-01T10:23:50.767008,14.88424373,.0001594,97.8099,189.6506,89.8440,270.2959,0,U,51284,999,24059,.76794061E-4,.658E-5,0
LUDI TANCE 1-01B (L-SAR 01B),2022-018A,2026-07-02T14:37:58.624320,14.88418165,.00016292,97.8105,190.8078,91.1169,269.0234,0,U,51822,999,23600,.83732975E-4,.722E-5,0
2022-023F,2022-023F,2026-07-01T18:27:50.269248,15.17972646,.01319085,63.4435,223.9070,341.9518,17.6933,0,U,51951,999,23992,.2919684E-3,.7238E-4,0
MERIDIAN 10,2022-030A,2026-07-01T10:12:48.422880,2.00611817,.67878242,62.6790,139.2518,272.8490,17.6305,0,U,52145,999,3131,0,.167E-5,0
OMNI-L1,2022-033A,2026-07-02T05:27:31.185792,14.82805288,.00042751,97.8393,262.1129,222.5064,137.5819,0,U,52157,999,22968,.32902263E-3,.261E-4,0
ENMAP,2022-033C,2026-07-02T15:11:08.258208,14.74932337,.00014628,97.9798,265.6637,75.4276,284.7095,0,U,52159,999,22893,.66492743E-4,.396E-5,0
ARCSAT-1,2022-033E,2026-07-02T04:41:28.871520,15.53982129,.00060654,97.2757,275.6947,132.7137,227.4629,0,U,52161,999,23803,.21863125E-3,.14041E-3,0
GLOBAL-18,2022-034B,2026-07-02T07:29:26.793024,15.46785554,.00039545,52.9795,184.3242,346.1333,13.9564,0,U,52196,999,23930,.34652365E-3,.17257E-3,0
GAOFEN-3 03,2022-035A,2026-07-02T15:09:29.381184,14.42216661,.00015993,98.4056,191.9877,95.5544,264.5828,0,U,52200,999,22307,.571717E-6,-.42E-6,0
DAQI-1,2022-039A,2026-07-02T15:48:26.188416,14.57685899,.00030179,98.1489,122.1911,184.9603,175.1567,0,U,52257,999,22419,.40701738E-4,.141E-5,0
BRO-6,2022-047AE,2026-07-02T14:54:40.428000,15.51647932,.00036353,97.3401,274.9833,17.8368,342.3012,0,U,52422,999,23354,.71512535E-3,.42562E-3,0
JILIN-1 GAOFEN 3D27,2022-048B,2026-07-02T13:44:48.841728,15.79319453,.00033814,97.5731,298.9478,277.2731,82.8151,0,U,52444,999,23190,.84315244E-3,.153512E-2,0
JILIN-1 GAOFEN 3D28,2022-048C,2026-07-02T12:55:50.306880,15.83204246,.00028375,97.5659,299.1312,259.0739,101.0211,0,U,52445,999,23195,.83606523E-3,.18249E-2,0
VIGORIDE-3,2022-057AE,2026-07-02T13:07:48.753120,15.27439442,.00096399,97.6630,323.9308,74.0943,286.1357,0,U,52760,999,22750,.24070722E-3,.6394E-4,0
ION SCV-006,2022-057AF,2026-07-02T09:08:18.007872,15.45657678,.00178575,97.6122,332.7355,62.2291,298.0766,0,U,52761,999,22846,.28927727E-3,.13942E-3,0
SHERPA-AC1,2022-057AH,2026-07-02T08:56:35.342592,15.36476825,.00082967,97.6707,333.2345,46.8943,313.2993,0,U,52763,999,22803,.24562695E-3,.8665E-4,0
OMNI-L2,2022-057AR,2026-07-02T14:10:21.563904,14.81411757,.00050873,97.4709,244.9137,273.3311,86.7321,0,U,52771,999,22267,.21511472E-3,.1635E-4,0
STEP CUBE LAB-II,2022-065D,2026-07-02T15:47:19.516128,14.63327344,.00081848,98.2248,327.5126,345.6669,14.4300,0,U,52897,999,21376,.18954087E-3,.931E-5,0
RANDEV,2022-065E,2026-07-02T15:42:58.816224,14.63714903,.00075706,98.2231,327.8681,346.7925,13.3078,0,U,52898,999,21351,.16127817E-3,.792E-5,0
SNUGLITE-II,2022-065F,2026-07-02T09:43:33.888576,14.64375877,.00069555,98.2221,328.2102,346.0006,14.1002,0,U,52899,999,21322,.21596211E-3,.1093E-4,0
MIMAN,2022-065G,2026-07-02T15:42:03.642048,14.61860861,.0007159,98.2282,326.0602,347.6079,12.4945,0,U,52900,999,21270,.1424195E-3,.664E-5,0
STARLINK-4362,2022-077A,2026-07-02T11:37:48.422208,15.05662097,.00016514,97.2858,1.6404,66.8489,293.2912,0,U,53043,999,21818,-.15663821E-3,-.2316E-4,0
LARES-2,2022-080A,2026-06-26T09:41:16.046016,6.38965133,.0005264,70.1592,302.1681,334.1364,25.8897,0,U,53105,999,9225,0,-.28E-6,0
GREENCUBE (IO-117),2022-080E,2026-06-30T17:23:31.202880,6.42583253,.00089588,70.1437,293.5372,286.6703,73.2973,0,U,53109,999,9293,0,-.3E-7,0
STARLINK-4410,2022-084R,2026-07-02T14:00:01.999872,15.38822556,.00015538,97.5988,245.1319,89.1940,180.1859,0,U,53204,999,583,.34564317E-2,.13481E-2,0
COSMOS 2558,2022-089A,2026-07-01T11:46:25.629024,15.78292621,.0002664,97.2255,287.1682,243.8138,116.2855,0,U,53323,999,22008,.80594E-3,.139889E-2,0
TECMS,2022-090A,2026-07-02T14:45:04.249728,15.21512961,.00048361,97.3131,251.2881,132.0040,228.1609,0,U,53346,999,21715,.1942085E-3,.4305E-4,0
